GALAXY 25 (G-25)        
1 24812U 97026A   22337.18866906  .00000001  00000+0  00000+0 0  9991
2 24812   4.1094  81.9350 0006827 198.6530 285.4499  1.00272388 93417
INTELSAT 5 (IS-5)       
1 24916U 97046A   22336.60704375 -.00000060  00000+0  00000+0 0  9991
2 24916   7.5861  59.8666 0005959 187.9062 208.3619  1.00274345 92660
GALAXY 11 (G-11)        
1 26038U 99071A   22336.79817007 -.00000158  00000+0  00000+0 0  9993
2 26038   3.4470  85.5046 0001986 214.8214 325.5363  1.00271031 84120
INTELSAT 9 (IS-9)       
1 26451U 00043A   22336.66326244 -.00000286  00000+0  00000+0 0  9999
2 26451   7.5726  60.0543 0004048 188.9210  11.2828  1.00270454 31188
INTELSAT 1R (IS-1R)     
1 26608U 00072A   22337.43059383 -.00000133  00000+0  00000+0 0  9999
2 26608   4.8227  79.0421 0000460 270.5742  34.7542  1.00272026 80707
INTELSAT 10 (IS-10)     
1 26766U 01019A   22337.45479104  .00000039  00000+0  00000+0 0  9999
2 26766   5.9793  71.9061 0004214 181.6740 160.2041  1.00272887 78974
INTELSAT 901 (IS-901)   
1 26824U 01024A   22336.45267963 -.00000198  00000+0  00000+0 0  9994
2 26824   0.0436  95.4475 0000562 174.5930 296.7094  1.00271270 10023
INTELSAT 902 (IS-902)   
1 26900U 01039A   22337.16557032 -.00000277  00000+0  00000+0 0  9991
2 26900   2.8288  87.1100 0003501 179.8662 174.5215  1.00271722 77812
INTELSAT 904 (IS-904)   
1 27380U 02007A   22337.25396696 -.00000208  00000+0  00000+0 0  9991
2 27380   3.6599  84.1244 0003060 171.1749 238.6981  1.00271327 76133
DIRECTV 5 (TEMPO 1)     
1 27426U 02023A   22337.23438736 -.00000050  00000+0  00000+0 0  9995
2 27426   1.5565  91.1657 0003346 163.8559 151.2958  1.00271654 75354
INTELSAT 905 (IS-905)   
1 27438U 02027A   22337.15049351 -.00000179  00000+0  00000+0 0  9996
2 27438   3.4821  84.8440 0002763 161.8716 214.9448  1.00271336 75018
GALAXY 3C (G-3C)        
1 27445U 02030A   22336.58272976 -.00000148  00000+0  00000+0 0  9991
2 27445   0.4073  91.6073 0001358 218.9010 235.8270  1.00270946 33532
INTELSAT 906 (IS-906)   
1 27513U 02041A   22337.18832039  .00000020  00000+0  00000+0 0  9996
2 27513   2.4984  88.5222 0004492 168.1310 307.2880  1.00272330 74011
GALAXY 12 (G-12)        
1 27715U 03013B   22336.62625788  .00000062  00000+0  00000+0 0  9995
2 27715   3.6912  83.7872 0001862 170.0318 274.0847  1.00271432 39135
GALAXY 23 (G-23)        
1 27854U 03034A   22336.72102906  .00000017  00000+0  00000+0 0  9995
2 27854   0.0084 313.6362 0003045 296.8316 319.6800  1.00272423 70781
GALAXY 13 (HORIZONS-1)  
1 27954U 03044A   22336.62835535  .00000053  00000+0  00000+0 0  9997
2 27954   0.0090  82.2338 0001086 101.8497 346.5514  1.00270151 33617
INTELSAT 10-02          
1 28358U 04022A   22337.39054310 -.00000005  00000+0  00000+0 0  9990
2 28358   0.0310  82.4103 0001280 217.2876 272.1083  1.00270351 67672
XM-3 (RHYTHM)           
1 28626U 05008A   22336.79991337 -.00000201  00000+0  00000+0 0  9993
2 28626   0.0217 136.9203 0002201  55.2605  82.2988  1.00267972 65101
DIRECTV 8               
1 28659U 05019A   22337.53610124  .00000008  00000+0  00000+0 0  9990
2 28659   0.0412 124.3822 0002804 124.9897 256.9261  1.00271703 64232
GALAXY 28 (G-28)        
1 28702U 05022A   22337.44467253 -.00000180  00000+0  00000+0 0  9998
2 28702   0.0510  77.5370 0002330 200.1671 225.6508  1.00277046 63870
GALAXY 14 (G-14)        
1 28790U 05030A   22336.82344789  .00000160  00000+0  00000+0 0  9990
2 28790   1.6882  90.3627 0002066 156.4642 154.1814  1.00274505 63346
GALAXY 15 (G-15)        
1 28884U 05041A   22336.62993264  .00000038  00000+0  00000+0 0  9996
2 28884   0.2398  92.3370 0004248 176.2302 264.3196  1.00307547 62654
SPACEWAY 2              
1 28903U 05046B   22337.24601153  .00000109  00000+0  00000+0 0  9994
2 28903   2.2903  86.2928 0001194 189.7799 105.6747  1.00271621 62547
GALAXY 16 (G-16)        
1 29236U 06023A   22336.66195230 -.00000122  00000+0  00000+0 0  9995
2 29236   0.0211  67.1907 0002906 185.7983 317.7797  1.00270337 60017
DIRECTV 9S              
1 29494U 06043A   22337.23886873 -.00000108  00000+0  00000+0 0  9991
2 29494   0.0140   3.3411 0003115 251.3181 162.1938  1.00271627 59154
XM-4 (BLUES)            
1 29520U 06049A   22337.37229038 -.00000199  00000+0  00000+0 0  9996
2 29520   0.0181 293.2007 0001757  31.0058 156.8878  1.00270476 59048
GALAXY 17 (G-17)        
1 31307U 07016B   22336.79869306 -.00000170  00000+0  00000+0 0  9999
2 31307   0.0214  26.6664 0002957 237.8357   3.6638  1.00272336 57115
DIRECTV 10              
1 31862U 07032A   22337.36223524 -.00000098  00000+0  00000+0 0  9992
2 31862   0.0067  93.4626 0000704 112.6922 253.6419  1.00278248 56451
SPACEWAY 3              
1 32018U 07036A   22336.58272976 -.00000147  00000+0  00000+0 0  9993
2 32018   0.6591  91.0880 0000448 356.9441  98.2087  1.00271150 33592
INTELSAT 11 (IS-11)     
1 32253U 07044B   22337.16696497 -.00000263  00000+0  00000+0 0  9995
2 32253   0.2169  94.0366 0003028 178.6380 176.4179  1.00271925 55573
HORIZONS-2              
1 32388U 07063B   22337.44772331 -.00000247  00000+0  00000+0 0  9990
2 32388   0.0205  57.4343 0002212 198.8533 263.3607  1.00272104 54927
DIRECTV 11              
1 32729U 08013A   22337.24037403 -.00000120  00000+0  00000+0 0  9997
2 32729   0.0448 122.9224 0000626 158.5064 137.9905  1.00271031 53980
GALAXY 18 (G-18)        
1 32951U 08024A   22336.72059324  .00000030  00000+0  00000+0 0  9993
2 32951   0.0387 117.5593 0002984 129.3694 321.0282  1.00270637 32894
INTELSAT 25 (IS-25)     
1 33153U 08034A   22337.45617831 -.00000217  00000+0  00000+0 0  9991
2 33153   0.0176 315.5626 0003100 299.7159 309.7207  1.00271562 52688
GALAXY 19 (G-19)        
1 33376U 08045A   22337.24187758 -.00000134  00000+0  00000+0 0  9995
2 33376   0.0406 122.2018 0002716 132.9449 166.9899  1.00271568 51888
FM-5                    
1 35493U 09034A   22336.79965188 -.00000196  00000+0  00000+0 0  9994
2 35493   0.0022  16.1895 0000480 163.5047  93.6662  1.00271577 33680
INTELSAT 14 (IS-14)     
1 36097U 09064A   22337.16652914 -.00000268  00000+0  00000+0 0  9990
2 36097   0.0168  46.3533 0002511 199.8689 200.7232  1.00271557 47741
INTELSAT 15 (IS-15)     
1 36106U 09067A   22336.84823233 -.00000181  00000+0  00000+0 0  9996
2 36106   0.0151 325.8115 0002441 293.3446 203.0330  1.00271662 28277
DIRECTV 12              
1 36131U 09075A   22337.37023365 -.00000097  00000+0  00000+0 0  9996
2 36131   0.0359 148.4105 0000145 274.8904  39.4632  1.00268775 47431
INTELSAT 16 (IS-16)     
1 36397U 10006A   22336.54755694 -.00000241  00000+0  00000+0 0  9992
2 36397   0.0146 317.6598 0002020 286.1493 308.4840  1.00272158 46695
XM-5                    
1 37185U 10053A   22337.00910926 -.00000018  00000+0  00000+0 0  9995
2 37185   0.0176 349.4146 0000583 179.4613 151.0428  1.00271514 44480
INTELSAT 17 (IS-17)     
1 37238U 10065B   22336.87253240  .00000003  00000+0  00000+0 0  9993
2 37238   0.0155 280.8365 0002454 333.4463 197.5337  1.00271377 43964
INTELSAT NEW DAWN       
1 37392U 11016A   22337.38660425  .00000162  00000+0  00000+0 0  9991
2 37392   0.0436 128.4487 0001268 120.2083 355.5315  1.00273129 42565
INTELSAT 18 (IS-18)     
1 37834U 11056A   22336.85273534  .00000057  00000+0  00000+0 0  9991
2 37834   0.0260   7.2428 0002081 234.1013 317.3212  1.00270283 40885
INTELSAT 22 (IS-22)     
1 38098U 12011A   22336.47255324 -.00000056  00000+0  00000+0 0  9991
2 38098   0.0139 329.6314 0002826 276.9148  66.9926  1.00273069 38856
INTELSAT 19 (IS-19)     
1 38356U 12030A   22337.23629347 -.00000051  00000+0  00000+0 0  9999
2 38356   0.0180 344.5222 0003280 271.4705  67.1377  1.00272028 38551
INTELSAT 20 (IS-20)     
1 38740U 12043A   22337.02878289 -.00000020  00000+0  00000+0 0  9994
2 38740   0.0070  92.1475 0003309 101.0301 317.5425  1.00271332 37871
INTELSAT 21 (IS-21)     
1 38749U 12045A   22336.80531760 -.00000280  00000+0  00000+0 0  9998
2 38749   0.0207  51.5627 0002209 191.7836  60.2043  1.00272850 37578
INTELSAT 23 (IS-23)     
1 38867U 12057A   22337.23268604 -.00000279  00000+0  00000+0 0  9992
2 38867   0.0229 320.1408 0000950 357.4731 145.2055  1.00269208 37155
FM-6                    
1 39360U 13058A   22336.72190072 -.00000013  00000+0  00000+0 0  9995
2 39360   0.0207 311.4693 0000433 217.2647  46.5511  1.00273751 33103
INTELSAT 30 (IS-30)     
1 40271U 14062A   22337.02614983 -.00000146  00000+0  00000+0 0  9997
2 40271   0.0017   7.4455 0002188 104.2610 234.4975  1.00271434 29807
DIRECTV 14              
1 40333U 14078B   22337.44266774 -.00000121  00000+0  00000+0 0  9993
2 40333   0.0405  92.9398 0000667 162.6424 236.8041  1.00281809 29293
DIRECTV 15              
1 40663U 15026A   22336.93981312 -.00000098  00000+0  00000+0 0  9991
2 40663   0.0268  76.0843 0000303  89.3604 141.7857  1.00271221 27571
SKY MEXICO-1            
1 40664U 15026B   22337.03094778 -.00000230  00000+0  00000+0 0  9993
2 40664   0.0159  21.3818 0002167 230.4072 112.4400  1.00271945 27576
INTELSAT 34 (IS-34)     
1 40874U 15039A   22336.87749019 -.00000281  00000+0  00000+0 0  9992
2 40874   0.0096 312.5738 0000691 229.1348 150.4007  1.00272406 26663
INTELSAT 31 (IS-31)     
1 41581U 16035A   22336.29578271 -.00000147  00000+0  00000+0 0  9992
2 41581   0.0144 265.3329 0001934 300.0222 237.1902  1.00269336 23724
INTELSAT 36 (IS-36)     
1 41747U 16053A   22336.92896795 -.00000020  00000+0  00000+0 0  9990
2 41747   0.0112 348.6544 0001196  22.2918 103.7325  1.00272127 22988
INTELSAT 33E (IS-33E)   
1 41748U 16053B   22337.18744875  .00000055  00000+0  00000+0 0  9998
2 41748   0.0094   2.3013 0001751 245.6079 311.5716  1.00270588 23263
INTELSAT 32E (IS-32E)   
1 41945U 17007B   22336.80828122 -.00000265  00000+0  00000+0 0  9997
2 41945   0.0171 353.3931 0000621 179.2820 146.7583  1.00271905 21281
INTELSAT 35E (IS-35E)   
1 42818U 17041A   22337.38383139 -.00000232  00000+0  00000+0 0  9997
2 42818   0.0023  15.7117 0001867 236.0446 284.1309  1.00272507 19853
INTELSAT 37E (IS-37E)   
1 42950U 17059A   22337.23062854 -.00000135  00000+0  00000+0 0  9997
2 42950   0.0154  47.4384 0002725 200.1366 249.4956  1.00273088 19093
AZERSPACE 2 (IS-38)     
1 43632U 18074A   22336.82580135  .00000141  00000+0  00000+0 0  9990
2 43632   0.0186 329.3004 0001610 287.9085 156.8409  1.00269740 15483
HORIZONS-3E             
1 43633U 18074B   22337.31673076 -.00000025  00000+0  00000+0 0  9995
2 43633   0.0199  82.0917 0001562 199.7405  73.2982  1.00270013 15366
AT&T T-16               
1 44333U 19034A   22335.43737806 -.00000114  00000+0  00000+0 0  9992
2 44333   0.0487 104.0726 0000406 170.0563 212.7338  1.00274212 12659
INTELSAT 39 (IS-39)     
1 44476U 19049B   22337.40309486  .00000039  00000+0  00000+0 0  9999
2 44476   0.0202 315.8966 0000829 186.9865 136.3932  1.00270971 12176
GALAXY 30 (G-30)        
1 46114U 20056C   22337.36976543  .00000042  00000+0  00000+0 0  9993
2 46114   0.0033 353.4839 0002198 252.9307 193.8840  1.00273183  8452
GALAXY 33               
1 54026U 22128A   22336.79183701  .00000083  00000+0  00000+0 0  9993
2 54026   0.0419 104.0923 0002184 147.1084 332.4776  1.00272412   799
GALAXY 34               
1 54027U 22128B   22336.18410937  .00000068  00000+0  00000+0 0  9994
2 54027   0.0147 349.6242 0001401 314.6128  55.7497  1.00575865   951
2022-153A               
1 54243U 22153A   22337.58238854  .00000138  00000+0  00000+0 0  9991
2 54243   0.0268 135.0707 0001689 171.0650 186.9446  1.00272648   203
2022-153B               
1 54244U 22153B   22337.58238852  .00000138  00000+0  00000+0 0  9990
2 54244   0.0150 317.6307 0002193 319.7489 215.6316  1.00269989   211
